{
  "type": "FeatureCollection",
  "features": [
    {
      "type": "Feature",
      "properties": {
        "norad_id": 66470,
        "name": "STARLINK-35655",
        "group": "last-30-days",
        "lat": -41.71083173923641,
        "lon": 25.380355263366212,
        "alt_km": 374.7649047096511,
        "timestamp": "2025-12-02T07:10:07.866560+00:00",
        "meta_object_name": "STARLINK-35655",
        "meta_object_id": "2025-262Q",
        "meta_epoch": "2025-12-01T20:00:01.999008",
        "meta_mean_motion": 15.67292819,
        "meta_eccentricity": 0.0001381,
        "meta_inclination": 42.9988,
        "meta_ra_of_asc_node": 135.1209,
        "meta_arg_of_pericenter": 285.1936,
        "meta_mean_anomaly": 225.1952,
        "meta_ephemeris_type": 0,
        "meta_classification_type": "U",
        "meta_norad_cat_id": 66470,
        "meta_element_set_no": 999,
        "meta_rev_at_epoch": 388,
        "meta_bstar": -0.020964,
        "meta_mean_motion_dot": -0.02039716,
        "meta_mean_motion_ddot": 0,
        "tle_line1": "1 66470U 25262Q   25335.83335647 -.02039716  00000+0 -20964-1 0  9998",
        "tle_line2": "2 66470  42.9988 135.1209 0001381 285.1936 225.1952 15.67292819  3888"
      },
      "geometry": {
        "type": "Point",
        "coordinates": [
          25.380355263366212,
          -41.71083173923641
        ]
      }
    },
    {
      "type": "Feature",
      "properties": {
        "norad_id": 66471,
        "name": "STARLINK-35569",
        "group": "last-30-days",
        "lat": -42.06455955092971,
        "lon": 27.90675198336864,
        "alt_km": 374.7410226054153,
        "timestamp": "2025-12-02T07:10:07.866578+00:00",
        "meta_object_name": "STARLINK-35569",
        "meta_object_id": "2025-262R",
        "meta_epoch": "2025-12-01T20:00:01.999008",
        "meta_mean_motion": 15.67298366,
        "meta_eccentricity": 0.0001354,
        "meta_inclination": 42.9991,
        "meta_ra_of_asc_node": 135.116,
        "meta_arg_of_pericenter": 281.8573,
        "meta_mean_anomaly": 230.4477,
        "meta_ephemeris_type": 0,
        "meta_classification_type": "U",
        "meta_norad_cat_id": 66471,
        "meta_element_set_no": 999,
        "meta_rev_at_epoch": 388,
        "meta_bstar": -0.021048,
        "meta_mean_motion_dot": -0.02047272,
        "meta_mean_motion_ddot": 0,
        "tle_line1": "1 66471U 25262R   25335.83335647 -.02047272  00000+0 -21048-1 0  9999",
        "tle_line2": "2 66471  42.9991 135.1160 0001354 281.8573 230.4477 15.67298366  3883"
      },
      "geometry": {
        "type": "Point",
        "coordinates": [
          27.90675198336864,
          -42.06455955092971
        ]
      }
    },
    {
      "type": "Feature",
      "properties": {
        "norad_id": 66472,
        "name": "STARLINK-35567",
        "group": "last-30-days",
        "lat": -42.60098582992343,
        "lon": 33.02286883349724,
        "alt_km": 374.78699157492883,
        "timestamp": "2025-12-02T07:10:07.866598+00:00",
        "meta_object_name": "STARLINK-35567",
        "meta_object_id": "2025-262S",
        "meta_epoch": "2025-12-01T20:00:01.999008",
        "meta_mean_motion": 15.6729771,
        "meta_eccentricity": 0.0001345,
        "meta_inclination": 42.9993,
        "meta_ra_of_asc_node": 135.1062,
        "meta_arg_of_pericenter": 287.34,
        "meta_mean_anomaly": 228.7967,
        "meta_ephemeris_type": 0,
        "meta_classification_type": "U",
        "meta_norad_cat_id": 66472,
        "meta_element_set_no": 999,
        "meta_rev_at_epoch": 388,
        "meta_bstar": -0.021013,
        "meta_mean_motion_dot": -0.02044222,
        "meta_mean_motion_ddot": 0,
        "tle_line1": "1 66472U 25262S   25335.83335647 -.02044222  00000+0 -21013-1 0  9994",
        "tle_line2": "2 66472  42.9993 135.1062 0001345 287.3400 228.7967 15.67297710  3883"
      },
      "geometry": {
        "type": "Point",
        "coordinates": [
          33.02286883349724,
          -42.60098582992343
        ]
      }
    },
    {
      "type": "Feature",
      "properties": {
        "norad_id": 66473,
        "name": "STARLINK-35568",
        "group": "last-30-days",
        "lat": -42.78242877165122,
        "lon": 35.61083207695981,
        "alt_km": 374.7598519485673,
        "timestamp": "2025-12-02T07:10:07.866617+00:00",
        "meta_object_name": "STARLINK-35568",
        "meta_object_id": "2025-262T",
        "meta_epoch": "2025-12-01T20:00:01.999008",
        "meta_mean_motion": 15.67295211,
        "meta_eccentricity": 0.000134,
        "meta_inclination": 42.9991,
        "meta_ra_of_asc_node": 135.1012,
        "meta_arg_of_pericenter": 285.681,
        "meta_mean_anomaly": 232.3736,
        "meta_ephemeris_type": 0,
        "meta_classification_type": "U",
        "meta_norad_cat_id": 66473,
        "meta_element_set_no": 999,
        "meta_rev_at_epoch": 388,
        "meta_bstar": -0.020985,
        "meta_mean_motion_dot": -0.02041641,
        "meta_mean_motion_ddot": 0,
        "tle_line1": "1 66473U 25262T   25335.83335647 -.02041641  00000+0 -20985-1 0  9994",
        "tle_line2": "2 66473  42.9991 135.1012 0001340 285.6810 232.3736 15.67295211  3887"
      },
      "geometry": {
        "type": "Point",
        "coordinates": [
          35.61083207695981,
          -42.78242877165122
        ]
      }
    },
    {
      "type": "Feature",
      "properties": {
        "norad_id": 66474,
        "name": "STARLINK-35620",
        "group": "last-30-days",
        "lat": -42.90556667138908,
        "lon": 38.214361708407424,
        "alt_km": 374.7571164459314,
        "timestamp": "2025-12-02T07:10:07.866628+00:00",
        "meta_object_name": "STARLINK-35620",
        "meta_object_id": "2025-262U",
        "meta_epoch": "2025-12-01T20:00:01.999008",
        "meta_mean_motion": 15.67299102,
        "meta_eccentricity": 0.0001307,
        "meta_inclination": 42.9993,
        "meta_ra_of_asc_node": 135.0962,
        "meta_arg_of_pericenter": 283.5873,
        "meta_mean_anomaly": 236.3844,
        "meta_ephemeris_type": 0,
        "meta_classification_type": "U",
        "meta_norad_cat_id": 66474,
        "meta_element_set_no": 999,
        "meta_rev_at_epoch": 388,
        "meta_bstar": -0.021051,
        "meta_mean_motion_dot": -0.02047485,
        "meta_mean_motion_ddot": 0,
        "tle_line1": "1 66474U 25262U   25335.83335647 -.02047485  00000+0 -21051-1 0  9992",
        "tle_line2": "2 66474  42.9993 135.0962 0001307 283.5873 236.3844 15.67299102  3889"
      },
      "geometry": {
        "type": "Point",
        "coordinates": [
          38.214361708407424,
          -42.90556667138908
        ]
      }
    },
    {
      "type": "Feature",
      "properties": {
        "norad_id": 66475,
        "name": "STARLINK-35538",
        "group": "last-30-days",
        "lat": -42.969133222718945,
        "lon": 40.82258861804098,
        "alt_km": 374.69426629260124,
        "timestamp": "2025-12-02T07:10:07.866639+00:00",
        "meta_object_name": "STARLINK-35538",
        "meta_object_id": "2025-262V",
        "meta_epoch": "2025-12-01T20:00:01.999008",
        "meta_mean_motion": 15.67296083,
        "meta_eccentricity": 0.0001383,
        "meta_inclination": 42.9994,
        "meta_ra_of_asc_node": 135.0921,
        "meta_arg_of_pericenter": 282.9743,
        "meta_mean_anomaly": 238.9164,
        "meta_ephemeris_type": 0,
        "meta_classification_type": "U",
        "meta_norad_cat_id": 66475,
        "meta_element_set_no": 999,
        "meta_rev_at_epoch": 388,
        "meta_bstar": -0.021028,
        "meta_mean_motion_dot": -0.02045361,
        "meta_mean_motion_ddot": 0,
        "tle_line1": "1 66475U 25262V   25335.83335647 -.02045361  00000+0 -21028-1 0  9998",
        "tle_line2": "2 66475  42.9994 135.0921 0001383 282.9743 238.9164 15.67296083  3887"
      },
      "geometry": {
        "type": "Point",
        "coordinates": [
          40.82258861804098,
          -42.969133222718945
        ]
      }
    },
    {
      "type": "Feature",
      "properties": {
        "norad_id": 66476,
        "name": "STARLINK-35372",
        "group": "last-30-days",
        "lat": -42.97296978632858,
        "lon": 43.43728387946642,
        "alt_km": 374.7651289675032,
        "timestamp": "2025-12-02T07:10:07.866651+00:00",
        "meta_object_name": "STARLINK-35372",
        "meta_object_id": "2025-262W",
        "meta_epoch": "2025-12-01T20:00:01.999008",
        "meta_mean_motion": 15.67289905,
        "meta_eccentricity": 0.0001235,
        "meta_inclination": 42.9993,
        "meta_ra_of_asc_node": 135.0872,
        "meta_arg_of_pericenter": 281.7368,
        "meta_mean_anomaly": 242.0737,
        "meta_ephemeris_type": 0,
        "meta_classification_type": "U",
        "meta_norad_cat_id": 66476,
        "meta_element_set_no": 999,
        "meta_rev_at_epoch": 377,
        "meta_bstar": -0.020928,
        "meta_mean_motion_dot": -0.02036329,
        "meta_mean_motion_ddot": 0,
        "tle_line1": "1 66476U 25262W   25335.83335647 -.02036329  00000+0 -20928-1 0  9991",
        "tle_line2": "2 66476  42.9993 135.0872 0001235 281.7368 242.0737 15.67289905  3773"
      },
      "geometry": {
        "type": "Point",
        "coordinates": [
          43.43728387946642,
          -42.97296978632858
        ]
      }
    }
  ]
}